GOES 1 (SMS-C) [-]      
1 08366U 75100A   21341.37157897 -.00000074  00000+0  00000+0 0  9994
2 08366   8.7387 298.1932 0002662 305.9945 217.4709  1.00316845168499
GOES 2 [-]              
1 10061U 77048A   21341.31104946 -.00000243  00000+0  00000+0 0  9991
2 10061  10.2806 309.1696 0013214  12.6403 174.6834  0.99398415 29842
GOES 3 [-]              
1 10953U 78062A   21341.14481132 -.00000023  00000+0  00000+0 0  9990
2 10953  10.5879 313.5133 0000733 100.3834 268.8492  0.99362970112111
GOES 4 [-]              
1 11964U 80074A   21341.31702583 -.00000204  00000+0  00000+0 0  9995
2 11964  11.5268 317.3134 0032456  64.7749 161.0509  0.99233497111039
GOES 5 [-]              
1 12472U 81049A   21341.58811453  .00000027  00000+0  00000+0 0  9991
2 12472  12.2814 328.4681 0000893 294.7011 256.7945  1.00324364106279
GOES 6 [-]              
1 14050U 83041A   21341.52848108 -.00000039  00000+0  00000+0 0  9994
2 14050  12.7974 333.7029 0002124 138.7508  36.7655  1.00322070199444
GOES 7 [-]              
1 17561U 87022A   21341.35118831 -.00000313  00000+0  00000+0 0  9996
2 17561  14.4007 350.1581 0005061  37.5674 320.4160  0.99908621110445
GOES 8 [-]              
1 23051U 94022A   21341.24011562  .00000027  00000+0  00000+0 0  9997
2 23051  13.0127  25.5688 0004691 355.5060   9.9591  0.98903831107782
GOES 9 [-]              
1 23581U 95025A   21341.29072758 -.00000059  00000+0  00000+0 0  9994
2 23581  12.5030  25.7963 0004118 102.2108 259.3682  0.98800414 96433
GOES 10 [-]             
1 24786U 97019A   21341.32430666 -.00000104  00000+0  00000+0 0  9998
2 24786  11.2044  31.8380 0026471 198.7090 337.2616  0.99124967 89684
GOES 11 [-]             
1 26352U 00022A   21341.39193110 -.00000164  00000+0  00000+0 0  9990
2 26352   8.2791  60.8289 0002399 205.7539 247.6705  0.99042250 36106
GOES 12 [-]             
1 26871U 01031A   21341.54129355 -.00000306  00000+0  00000+0 0  9992
2 26871   9.1759  49.4183 0006024 293.4409  72.3823  0.99140365 74383
EWS-G1 (GOES 13) [+]    
1 29155U 06018A   21341.69245522  .00000039  00000+0  00000+0 0  9993
2 29155   0.2992 102.9967 0006737 131.8717 152.5109  1.00272081 56949
GOES 14 [B]             
1 35491U 09033A   21341.65939948 -.00000092  00000+0  00000+0 0  9991
2 35491   0.1755 287.6498 0015429 294.6935 347.3698  1.00270337 45580
GOES 15 [B]             
1 36411U 10008A   21341.65468969  .00000054  00000+0  00000+0 0  9995
2 36411   0.2021 276.2821 0001051  23.1420 244.9005  1.00279586 43097
GOES 16 [+]             
1 41866U 16071A   21341.59346242 -.00000247  00000+0  00000+0 0  9998
2 41866   0.0478 255.4072 0000608  40.3246 279.3204  1.00270664 18534
GOES 17 [+]             
1 43226U 18022A   21341.50605036  .00000099  00000+0  00000+0 0  9992
2 43226   0.0431 241.3089 0000318 333.6875 266.4784  1.00269958 13855
